{"fetched_at":"2026-07-07T07:58:34.578Z","source":"https://celestrak.org/NORAD/elements/gp.php?NAME=HAWK&FORMAT=JSON","constellation":"hawkeye-360","records":[{"OBJECT_NAME":"HAWK-7B","OBJECT_ID":"2023-054R","EPOCH":"2026-07-06T18:19:21.109728","CLASSIFICATION_TYPE":"U","MEAN_MOTION":15.27575695,"ECCENTRICITY":0.0002252,"INCLINATION":97.2701,"RA_OF_ASC_NODE":72.8737,"ARG_OF_PERICENTER":31.9204,"MEAN_ANOMALY":328.2172,"EPHEMERIS_TYPE":0,"NORAD_CAT_ID":56193,"ELEMENT_SET_NO":999,"REV_AT_EPOCH":18001,"BSTAR":0.00018418,"MEAN_MOTION_DOT":0.00004894,"MEAN_MOTION_DDOT":0},{"OBJECT_NAME":"HAWK-7C","OBJECT_ID":"2023-054Y","EPOCH":"2026-07-06T18:19:11.400096","CLASSIFICATION_TYPE":"U","MEAN_MOTION":15.27574338,"ECCENTRICITY":0.0001922,"INCLINATION":97.2677,"RA_OF_ASC_NODE":73.6361,"ARG_OF_PERICENTER":19.6555,"MEAN_ANOMALY":340.4758,"EPHEMERIS_TYPE":0,"NORAD_CAT_ID":56200,"ELEMENT_SET_NO":999,"REV_AT_EPOCH":18001,"BSTAR":0.00018249,"MEAN_MOTION_DOT":0.00004848,"MEAN_MOTION_DDOT":0},{"OBJECT_NAME":"HAWK-8A","OBJECT_ID":"2024-066B","EPOCH":"2026-07-06T16:51:40.999968","CLASSIFICATION_TYPE":"U","MEAN_MOTION":14.99270441,"ECCENTRICITY":0.0002261,"INCLINATION":45.5937,"RA_OF_ASC_NODE":175.7336,"ARG_OF_PERICENTER":181.9405,"MEAN_ANOMALY":178.1468,"EPHEMERIS_TYPE":0,"NORAD_CAT_ID":59443,"ELEMENT_SET_NO":999,"REV_AT_EPOCH":12276,"BSTAR":0.00012694,"MEAN_MOTION_DOT":0.00001341,"MEAN_MOTION_DDOT":0},{"OBJECT_NAME":"HAWK-8B","OBJECT_ID":"2024-066D","EPOCH":"2026-07-05T08:53:17.709504","CLASSIFICATION_TYPE":"U","MEAN_MOTION":14.99274276,"ECCENTRICITY":0.0002802,"INCLINATION":45.6189,"RA_OF_ASC_NODE":184.5801,"ARG_OF_PERICENTER":187.7842,"MEAN_ANOMALY":172.2997,"EPHEMERIS_TYPE":0,"NORAD_CAT_ID":59445,"ELEMENT_SET_NO":999,"REV_AT_EPOCH":12255,"BSTAR":0.00090300891,"MEAN_MOTION_DOT":0.00010966,"MEAN_MOTION_DDOT":0},{"OBJECT_NAME":"HAWK-9A","OBJECT_ID":"2024-066E","EPOCH":"2026-07-06T12:36:46.175616","CLASSIFICATION_TYPE":"U","MEAN_MOTION":14.99196779,"ECCENTRICITY":0.0001959,"INCLINATION":45.6082,"RA_OF_ASC_NODE":177.2768,"ARG_OF_PERICENTER":161.6943,"MEAN_ANOMALY":198.4009,"EPHEMERIS_TYPE":0,"NORAD_CAT_ID":59446,"ELEMENT_SET_NO":999,"REV_AT_EPOCH":12273,"BSTAR":0.00013268,"MEAN_MOTION_DOT":0.00001409,"MEAN_MOTION_DDOT":0},{"OBJECT_NAME":"HAWK-9C","OBJECT_ID":"2024-066G","EPOCH":"2026-07-06T07:49:18.023520","CLASSIFICATION_TYPE":"U","MEAN_MOTION":14.99200098,"ECCENTRICITY":0.00018038,"INCLINATION":45.6043,"RA_OF_ASC_NODE":177.4108,"ARG_OF_PERICENTER":138.195,"MEAN_ANOMALY":221.9069,"EPHEMERIS_TYPE":0,"NORAD_CAT_ID":59448,"ELEMENT_SET_NO":999,"REV_AT_EPOCH":12270,"BSTAR":0.0001503814,"MEAN_MOTION_DOT":0.00001628,"MEAN_MOTION_DDOT":0},{"OBJECT_NAME":"HAWK-8C","OBJECT_ID":"2024-066H","EPOCH":"2026-07-06T00:52:05.539872","CLASSIFICATION_TYPE":"U","MEAN_MOTION":14.99274395,"ECCENTRICITY":0.00020986,"INCLINATION":45.6052,"RA_OF_ASC_NODE":180.1677,"ARG_OF_PERICENTER":192.7456,"MEAN_ANOMALY":167.3373,"EPHEMERIS_TYPE":0,"NORAD_CAT_ID":59449,"ELEMENT_SET_NO":999,"REV_AT_EPOCH":12265,"BSTAR":0.00020162243,"MEAN_MOTION_DOT":0.00002266,"MEAN_MOTION_DDOT":0},{"OBJECT_NAME":"HAWK-9B","OBJECT_ID":"2024-066J","EPOCH":"2026-07-05T23:49:32.515680","CLASSIFICATION_TYPE":"U","MEAN_MOTION":14.99196896,"ECCENTRICITY":0.0001968,"INCLINATION":45.6121,"RA_OF_ASC_NODE":180.9648,"ARG_OF_PERICENTER":126.4637,"MEAN_ANOMALY":233.6426,"EPHEMERIS_TYPE":0,"NORAD_CAT_ID":59450,"ELEMENT_SET_NO":999,"REV_AT_EPOCH":12265,"BSTAR":0.00015411035,"MEAN_MOTION_DOT":0.00001674,"MEAN_MOTION_DDOT":0},{"OBJECT_NAME":"HAWK-10A","OBJECT_ID":"2024-149CA","EPOCH":"2026-07-06T16:38:29.275296","CLASSIFICATION_TYPE":"U","MEAN_MOTION":14.96575748,"ECCENTRICITY":0.0003781,"INCLINATION":97.6892,"RA_OF_ASC_NODE":263.2696,"ARG_OF_PERICENTER":33.7861,"MEAN_ANOMALY":326.3601,"EPHEMERIS_TYPE":0,"NORAD_CAT_ID":60540,"ELEMENT_SET_NO":999,"REV_AT_EPOCH":10290,"BSTAR":0.00019022,"MEAN_MOTION_DOT":0.00002108,"MEAN_MOTION_DDOT":0},{"OBJECT_NAME":"HAWK-10B","OBJECT_ID":"2024-149CF","EPOCH":"2026-07-06T16:38:17.225088","CLASSIFICATION_TYPE":"U","MEAN_MOTION":14.96575583,"ECCENTRICITY":0.0006143,"INCLINATION":97.6813,"RA_OF_ASC_NODE":262.605,"ARG_OF_PERICENTER":43.1859,"MEAN_ANOMALY":316.9843,"EPHEMERIS_TYPE":0,"NORAD_CAT_ID":60545,"ELEMENT_SET_NO":999,"REV_AT_EPOCH":10290,"BSTAR":0.00018943,"MEAN_MOTION_DOT":0.00002099,"MEAN_MOTION_DDOT":0},{"OBJECT_NAME":"HAWK-10C","OBJECT_ID":"2024-149DM","EPOCH":"2026-07-06T16:38:45.657600","CLASSIFICATION_TYPE":"U","MEAN_MOTION":14.96575647,"ECCENTRICITY":0.0003364,"INCLINATION":97.6731,"RA_OF_ASC_NODE":261.9242,"ARG_OF_PERICENTER":24.2907,"MEAN_ANOMALY":335.8473,"EPHEMERIS_TYPE":0,"NORAD_CAT_ID":60575,"ELEMENT_SET_NO":999,"REV_AT_EPOCH":10290,"BSTAR":0.00018742,"MEAN_MOTION_DOT":0.00002076,"MEAN_MOTION_DDOT":0},{"OBJECT_NAME":"HAWK-11B","OBJECT_ID":"2024-247C","EPOCH":"2026-07-06T08:38:02.304960","CLASSIFICATION_TYPE":"U","MEAN_MOTION":15.30586194,"ECCENTRICITY":0.00042132,"INCLINATION":45.014,"RA_OF_ASC_NODE":184.624,"ARG_OF_PERICENTER":331.9398,"MEAN_ANOMALY":28.1259,"EPHEMERIS_TYPE":0,"NORAD_CAT_ID":62379,"ELEMENT_SET_NO":999,"REV_AT_EPOCH":8594,"BSTAR":0.00023450365,"MEAN_MOTION_DOT":0.00006769,"MEAN_MOTION_DDOT":0},{"OBJECT_NAME":"HAWK-11C","OBJECT_ID":"2024-247E","EPOCH":"2026-07-06T08:37:22.208448","CLASSIFICATION_TYPE":"U","MEAN_MOTION":15.30583339,"ECCENTRICITY":0.00050759,"INCLINATION":45.0022,"RA_OF_ASC_NODE":183.9666,"ARG_OF_PERICENTER":322.6433,"MEAN_ANOMALY":37.4098,"EPHEMERIS_TYPE":0,"NORAD_CAT_ID":62381,"ELEMENT_SET_NO":999,"REV_AT_EPOCH":8594,"BSTAR":0.00021857952,"MEAN_MOTION_DOT":0.00006288,"MEAN_MOTION_DDOT":0},{"OBJECT_NAME":"HAWK-11A","OBJECT_ID":"2024-247F","EPOCH":"2026-07-06T10:11:28.566816","CLASSIFICATION_TYPE":"U","MEAN_MOTION":15.30583255,"ECCENTRICITY":0.0004573,"INCLINATION":44.9922,"RA_OF_ASC_NODE":182.9455,"ARG_OF_PERICENTER":322.2328,"MEAN_ANOMALY":37.8235,"EPHEMERIS_TYPE":0,"NORAD_CAT_ID":62382,"ELEMENT_SET_NO":999,"REV_AT_EPOCH":8595,"BSTAR":0.00018772,"MEAN_MOTION_DOT":0.00005355,"MEAN_MOTION_DDOT":0},{"OBJECT_NAME":"HAWK-12C","OBJECT_ID":"2025-138A","EPOCH":"2026-07-06T13:12:55.736640","CLASSIFICATION_TYPE":"U","MEAN_MOTION":15.1835929,"ECCENTRICITY":0.0015757,"INCLINATION":97.4349,"RA_OF_ASC_NODE":189.6666,"ARG_OF_PERICENTER":78.4062,"MEAN_ANOMALY":281.894,"EPHEMERIS_TYPE":0,"NORAD_CAT_ID":64621,"ELEMENT_SET_NO":999,"REV_AT_EPOCH":5680,"BSTAR":0.00020862,"MEAN_MOTION_DOT":0.00004231,"MEAN_MOTION_DDOT":0},{"OBJECT_NAME":"HAWK-12B","OBJECT_ID":"2025-138B","EPOCH":"2026-07-06T13:13:10.687296","CLASSIFICATION_TYPE":"U","MEAN_MOTION":15.1835892,"ECCENTRICITY":0.0014683,"INCLINATION":97.4471,"RA_OF_ASC_NODE":190.3465,"ARG_OF_PERICENTER":74.1465,"MEAN_ANOMALY":286.1386,"EPHEMERIS_TYPE":0,"NORAD_CAT_ID":64622,"ELEMENT_SET_NO":999,"REV_AT_EPOCH":5680,"BSTAR":0.00020682,"MEAN_MOTION_DOT":0.00004192,"MEAN_MOTION_DDOT":0}]}
