HAWK-7B                 
1 56193U 23054R   26187.76343877  .00004894  00000+0  18418-3 0  9996
2 56193  97.2701  72.8737 0002252  31.9204 328.2172 15.27575695180013
HAWK-7C                 
1 56200U 23054Y   26187.76332639  .00004848  00000+0  18249-3 0  9990
2 56200  97.2677  73.6361 0001922  19.6555 340.4758 15.27574338180010
HAWK-8A                 
1 59443U 24066B   26187.70255787  .00001341  00000+0  12694-3 0  9991
2 59443  45.5937 175.7336 0002261 181.9405 178.1468 14.99270441122765
HAWK-8B                 
1 59445U 24066D   26186.37034386  .00010966  00000+0  90301-3 0  9999
2 59445  45.6189 184.5801 0002802 187.7842 172.2997 14.99274276122551
HAWK-9A                 
1 59446U 24066E   26187.52553444  .00001409  00000+0  13268-3 0  9998
2 59446  45.6082 177.2768 0001959 161.6943 198.4009 14.99196779122735
HAWK-9C                 
1 59448U 24066G   26187.32590305  .00001628  00000+0  15038-3 0  9995
2 59448  45.6043 177.4108 0001803 138.1950 221.9069 14.99200098122704
HAWK-8C                 
1 59449U 24066H   26187.03617523  .00002266  00000+0  20162-3 0  9999
2 59449  45.6052 180.1677 0002098 192.7456 167.3373 14.99274395122657
HAWK-9B                 
1 59450U 24066J   26186.99273745  .00001674  00000+0  15411-3 0  9992
2 59450  45.6121 180.9648 0001968 126.4637 233.6426 14.99196896122657
HAWK-10A                
1 60540U 24149CA  26187.69339439  .00002108  00000+0  19022-3 0  9992
2 60540  97.6892 263.2696 0003781  33.7861 326.3601 14.96575748102908
HAWK-10B                
1 60545U 24149CF  26187.69325492  .00002099  00000+0  18943-3 0  9991
2 60545  97.6813 262.6050 0006143  43.1859 316.9843 14.96575583102900
HAWK-10C                
1 60575U 24149DM  26187.69358400  .00002076  00000+0  18742-3 0  9991
2 60575  97.6731 261.9242 0003364  24.2907 335.8473 14.96575647102903
HAWK-11B                
1 62379U 24247C   26187.35974890  .00006769  00000+0  23450-3 0  9999
2 62379  45.0140 184.6240 0004213 331.9398  28.1259 15.30586194 85949
HAWK-11C                
1 62381U 24247E   26187.35928482  .00006288  00000+0  21858-3 0  9994
2 62381  45.0022 183.9666 0005075 322.6433  37.4098 15.30583339 85941
HAWK-11A                
1 62382U 24247F   26187.42463619  .00005355  00000+0  18772-3 0  9994
2 62382  44.9922 182.9455 0004573 322.2328  37.8235 15.30583255 85950
HAWK-12C                
1 64621U 25138A   26187.55064510  .00004231  00000+0  20862-3 0  9998
2 64621  97.4349 189.6666 0015757  78.4062 281.8940 15.18359290 56805
HAWK-12B                
1 64622U 25138B   26187.55081814  .00004192  00000+0  20682-3 0  9991
2 64622  97.4471 190.3465 0014683  74.1465 286.1386 15.18358920 56806
